[{"OBJECT_NAME":"STARLINK-3518","OBJECT_ID":"2022-016U","EPOCH":"2026-03-09T22:16:30.904608","MEAN_MOTION":15.08831596,"ECCENTRICITY":0.00020824,"INCLINATION":53.2202,"RA_OF_ASC_NODE":318.0543,"ARG_OF_PERICENTER":95.3717,"MEAN_ANOMALY":264.7513,"EPHEMERIS_TYPE":0,"CLASSIFICATION_TYPE":"U","NORAD_CAT_ID":51732,"ELEMENT_SET_NO":999,"REV_AT_EPOCH":22474,"BSTAR":2.3749512e-5,"MEAN_MOTION_DOT":9.0e-7,"MEAN_MOTION_DDOT":0},{"OBJECT_NAME":"COSMOS 2084","OBJECT_ID":"1990-055A","EPOCH":"2026-03-09T23:42:10.320480","MEAN_MOTION":15.05654003,"ECCENTRICITY":0.00170188,"INCLINATION":62.7921,"RA_OF_ASC_NODE":334.5624,"ARG_OF_PERICENTER":190.1371,"MEAN_ANOMALY":169.9389,"EPHEMERIS_TYPE":0,"CLASSIFICATION_TYPE":"U","NORAD_CAT_ID":20663,"ELEMENT_SET_NO":999,"REV_AT_EPOCH":93636,"BSTAR":0.00023056361,"MEAN_MOTION_DOT":3.154e-5,"MEAN_MOTION_DDOT":0}]
